0 CZ-2C DEB
1 39225U 13035F   13283.66489807  .00006231  00000-0  24903-2 0   362
2 39225 098.3393 071.5381 0189586 278.0835 079.9353 14.19145466  9201
